[{"OBJECT_NAME":"STARLINK-36848","OBJECT_ID":"2026-037E","EPOCH":"2026-03-05T04:00:01.999584","MEAN_MOTION":15.93844682,"ECCENTRICITY":0.0001535,"INCLINATION":43,"RA_OF_ASC_NODE":226.4485,"ARG_OF_PERICENTER":272.1637,"MEAN_ANOMALY":67.1369,"EPHEMERIS_TYPE":0,"CLASSIFICATION_TYPE":"U","NORAD_CAT_ID":67936,"ELEMENT_SET_NO":999,"REV_AT_EPOCH":247,"BSTAR":-0.0042148,"MEAN_MOTION_DOT":-0.01591287,"MEAN_MOTION_DDOT":0.00072025},{"OBJECT_NAME":"STARLINK-36370","OBJECT_ID":"2026-037F","EPOCH":"2026-03-05T04:00:01.999584","MEAN_MOTION":15.9370821,"ECCENTRICITY":0.000176,"INCLINATION":43.0003,"RA_OF_ASC_NODE":226.4555,"ARG_OF_PERICENTER":270.4074,"MEAN_ANOMALY":66.4256,"EPHEMERIS_TYPE":0,"CLASSIFICATION_TYPE":"U","NORAD_CAT_ID":67937,"ELEMENT_SET_NO":999,"REV_AT_EPOCH":247,"BSTAR":-0.0042206,"MEAN_MOTION_DOT":-0.01582157,"MEAN_MOTION_DDOT":0.0007117},{"OBJECT_NAME":"STARLINK-36371","OBJECT_ID":"2026-037G","EPOCH":"2026-03-05T04:00:01.999584","MEAN_MOTION":15.93974121,"ECCENTRICITY":0.0001535,"INCLINATION":43,"RA_OF_ASC_NODE":226.4425,"ARG_OF_PERICENTER":272.938,"MEAN_ANOMALY":68.6243,"EPHEMERIS_TYPE":0,"CLASSIFICATION_TYPE":"U","NORAD_CAT_ID":67938,"ELEMENT_SET_NO":999,"REV_AT_EPOCH":247,"BSTAR":-0.0041724,"MEAN_MOTION_DOT":-0.01586224,"MEAN_MOTION_DDOT":0.00071696},{"OBJECT_NAME":"STARLINK-36246","OBJECT_ID":"2026-037H","EPOCH":"2026-03-05T04:00:01.999584","MEAN_MOTION":15.94108921,"ECCENTRICITY":0.0001746,"INCLINATION":43.0001,"RA_OF_ASC_NODE":226.4374,"ARG_OF_PERICENTER":272.8705,"MEAN_ANOMALY":70.9332,"EPHEMERIS_TYPE":0,"CLASSIFICATION_TYPE":"U","NORAD_CAT_ID":67939,"ELEMENT_SET_NO":999,"REV_AT_EPOCH":238,"BSTAR":-0.0041434,"MEAN_MOTION_DOT":-0.01586626,"MEAN_MOTION_DDOT":0.00071826},{"OBJECT_NAME":"STARLINK-36907","OBJECT_ID":"2026-037J","EPOCH":"2026-03-05T04:00:01.999584","MEAN_MOTION":15.94492868,"ECCENTRICITY":0.0001561,"INCLINATION":43,"RA_OF_ASC_NODE":226.4175,"ARG_OF_PERICENTER":270.0601,"MEAN_ANOMALY":81.193,"EPHEMERIS_TYPE":0,"CLASSIFICATION_TYPE":"U","NORAD_CAT_ID":67940,"ELEMENT_SET_NO":999,"REV_AT_EPOCH":247,"BSTAR":-0.0040553,"MEAN_MOTION_DOT":-0.01585037,"MEAN_MOTION_DDOT":0.00071969},{"OBJECT_NAME":"STARLINK-36927","OBJECT_ID":"2026-037K","EPOCH":"2026-03-05T04:00:01.999584","MEAN_MOTION":15.94747556,"ECCENTRICITY":0.0001629,"INCLINATION":43,"RA_OF_ASC_NODE":226.4058,"ARG_OF_PERICENTER":269.5663,"MEAN_ANOMALY":86.3918,"EPHEMERIS_TYPE":0,"CLASSIFICATION_TYPE":"U","NORAD_CAT_ID":67941,"ELEMENT_SET_NO":999,"REV_AT_EPOCH":247,"BSTAR":-0.0039928,"MEAN_MOTION_DOT":-0.01582175,"MEAN_MOTION_DDOT":0.00071914},{"OBJECT_NAME":"STARLINK-36914","OBJECT_ID":"2026-037L","EPOCH":"2026-03-05T04:00:01.999584","MEAN_MOTION":15.94235151,"ECCENTRICITY":0.0001437,"INCLINATION":43.0001,"RA_OF_ASC_NODE":226.4295,"ARG_OF_PERICENTER":272.0285,"MEAN_ANOMALY":74.7312,"EPHEMERIS_TYPE":0,"CLASSIFICATION_TYPE":"U","NORAD_CAT_ID":67942,"ELEMENT_SET_NO":999,"REV_AT_EPOCH":247,"BSTAR":-0.0041398,"MEAN_MOTION_DOT":-0.01595749,"MEAN_MOTION_DDOT":0.00072679},{"OBJECT_NAME":"STARLINK-36851","OBJECT_ID":"2026-037M","EPOCH":"2026-03-05T04:00:01.999584","MEAN_MOTION":15.94364926,"ECCENTRICITY":0.0001666,"INCLINATION":43,"RA_OF_ASC_NODE":226.4237,"ARG_OF_PERICENTER":274.0428,"MEAN_ANOMALY":74.9883,"EPHEMERIS_TYPE":0,"CLASSIFICATION_TYPE":"U","NORAD_CAT_ID":67943,"ELEMENT_SET_NO":999,"REV_AT_EPOCH":247,"BSTAR":-0.0040967,"MEAN_MOTION_DOT":-0.01590275,"MEAN_MOTION_DDOT":0.00072315},{"OBJECT_NAME":"STARLINK-36892","OBJECT_ID":"2026-037N","EPOCH":"2026-03-05T04:00:01.999584","MEAN_MOTION":15.94616693,"ECCENTRICITY":0.0001537,"INCLINATION":43.0001,"RA_OF_ASC_NODE":226.4123,"ARG_OF_PERICENTER":274.8377,"MEAN_ANOMALY":78.7558,"EPHEMERIS_TYPE":0,"CLASSIFICATION_TYPE":"U","NORAD_CAT_ID":67944,"ELEMENT_SET_NO":999,"REV_AT_EPOCH":247,"BSTAR":-0.0040096,"MEAN_MOTION_DOT":-0.01577719,"MEAN_MOTION_DDOT":0.00071447},{"OBJECT_NAME":"STARLINK-36908","OBJECT_ID":"2026-037P","EPOCH":"2026-03-05T04:00:01.999584","MEAN_MOTION":15.94868127,"ECCENTRICITY":0.0001807,"INCLINATION":43.0001,"RA_OF_ASC_NODE":226.3981,"ARG_OF_PERICENTER":274.1841,"MEAN_ANOMALY":84.8279,"EPHEMERIS_TYPE":0,"CLASSIFICATION_TYPE":"U","NORAD_CAT_ID":67945,"ELEMENT_SET_NO":999,"REV_AT_EPOCH":247,"BSTAR":-0.0039521,"MEAN_MOTION_DOT":-0.01576336,"MEAN_MOTION_DDOT":0.00071513},{"OBJECT_NAME":"STARLINK-36909","OBJECT_ID":"2026-037Q","EPOCH":"2026-03-05T04:00:01.999584","MEAN_MOTION":15.94998247,"ECCENTRICITY":0.0001727,"INCLINATION":42.9999,"RA_OF_ASC_NODE":226.3938,"ARG_OF_PERICENTER":276.0548,"MEAN_ANOMALY":84.8009,"EPHEMERIS_TYPE":0,"CLASSIFICATION_TYPE":"U","NORAD_CAT_ID":67946,"ELEMENT_SET_NO":999,"REV_AT_EPOCH":247,"BSTAR":-0.0039266,"MEAN_MOTION_DOT":-0.01577157,"MEAN_MOTION_DDOT":0.00071675},{"OBJECT_NAME":"STARLINK-36920","OBJECT_ID":"2026-037R","EPOCH":"2026-03-05T04:00:01.999584","MEAN_MOTION":15.95119174,"ECCENTRICITY":0.0001484,"INCLINATION":43.0003,"RA_OF_ASC_NODE":226.3865,"ARG_OF_PERICENTER":273.4311,"MEAN_ANOMALY":90.1712,"EPHEMERIS_TYPE":0,"CLASSIFICATION_TYPE":"U","NORAD_CAT_ID":67947,"ELEMENT_SET_NO":999,"REV_AT_EPOCH":247,"BSTAR":-0.0038848,"MEAN_MOTION_DOT":-0.0157061,"MEAN_MOTION_DDOT":0.00071215},{"OBJECT_NAME":"STARLINK-36873","OBJECT_ID":"2026-037S","EPOCH":"2026-03-05T04:00:01.999584","MEAN_MOTION":15.95246994,"ECCENTRICITY":0.0001541,"INCLINATION":43.0003,"RA_OF_ASC_NODE":226.3811,"ARG_OF_PERICENTER":277.2595,"MEAN_ANOMALY":88.5375,"EPHEMERIS_TYPE":0,"CLASSIFICATION_TYPE":"U","NORAD_CAT_ID":67948,"ELEMENT_SET_NO":999,"REV_AT_EPOCH":247,"BSTAR":-0.0038672,"MEAN_MOTION_DOT":-0.01574277,"MEAN_MOTION_DDOT":0.00071614},{"OBJECT_NAME":"STARLINK-36863","OBJECT_ID":"2026-037T","EPOCH":"2026-03-05T04:00:01.999584","MEAN_MOTION":15.95363838,"ECCENTRICITY":0.0001561,"INCLINATION":43.0004,"RA_OF_ASC_NODE":226.3739,"ARG_OF_PERICENTER":276.6026,"MEAN_ANOMALY":91.9735,"EPHEMERIS_TYPE":0,"CLASSIFICATION_TYPE":"U","NORAD_CAT_ID":67949,"ELEMENT_SET_NO":999,"REV_AT_EPOCH":247,"BSTAR":-0.0038019,"MEAN_MOTION_DOT":-0.01557721,"MEAN_MOTION_DDOT":0.00070317},{"OBJECT_NAME":"STARLINK-36887","OBJECT_ID":"2026-037U","EPOCH":"2026-03-05T04:00:01.999584","MEAN_MOTION":15.95490741,"ECCENTRICITY":0.0001613,"INCLINATION":43.0003,"RA_OF_ASC_NODE":226.3667,"ARG_OF_PERICENTER":275.622,"MEAN_ANOMALY":95.8358,"EPHEMERIS_TYPE":0,"CLASSIFICATION_TYPE":"U","NORAD_CAT_ID":67950,"ELEMENT_SET_NO":999,"REV_AT_EPOCH":247,"BSTAR":-0.00379,"MEAN_MOTION_DOT":-0.01563532,"MEAN_MOTION_DDOT":0.00070892},{"OBJECT_NAME":"STARLINK-36897","OBJECT_ID":"2026-037V","EPOCH":"2026-03-05T04:00:01.999584","MEAN_MOTION":15.95612743,"ECCENTRICITY":0.0001511,"INCLINATION":43.0004,"RA_OF_ASC_NODE":226.3607,"ARG_OF_PERICENTER":273.427,"MEAN_ANOMALY":100.4852,"EPHEMERIS_TYPE":0,"CLASSIFICATION_TYPE":"U","NORAD_CAT_ID":67951,"ELEMENT_SET_NO":999,"REV_AT_EPOCH":247,"BSTAR":-0.0037442,"MEAN_MOTION_DOT":-0.01554965,"MEAN_MOTION_DDOT":0.00070266},{"OBJECT_NAME":"STARLINK-36381","OBJECT_ID":"2026-037W","EPOCH":"2026-03-05T04:00:01.999584","MEAN_MOTION":15.95871262,"ECCENTRICITY":0.0001836,"INCLINATION":43.0005,"RA_OF_ASC_NODE":226.3495,"ARG_OF_PERICENTER":273.9545,"MEAN_ANOMALY":104.3781,"EPHEMERIS_TYPE":0,"CLASSIFICATION_TYPE":"U","NORAD_CAT_ID":67952,"ELEMENT_SET_NO":999,"REV_AT_EPOCH":247,"BSTAR":-0.0037303,"MEAN_MOTION_DOT":-0.01571031,"MEAN_MOTION_DDOT":0.00071797},{"OBJECT_NAME":"STARLINK-36824","OBJECT_ID":"2026-037X","EPOCH":"2026-03-05T04:00:01.999584","MEAN_MOTION":15.95748578,"ECCENTRICITY":0.0001741,"INCLINATION":43.0005,"RA_OF_ASC_NODE":226.3551,"ARG_OF_PERICENTER":276.9877,"MEAN_ANOMALY":99.142,"EPHEMERIS_TYPE":0,"CLASSIFICATION_TYPE":"U","NORAD_CAT_ID":67953,"ELEMENT_SET_NO":999,"REV_AT_EPOCH":247,"BSTAR":-0.0037694,"MEAN_MOTION_DOT":-0.01576829,"MEAN_MOTION_DDOT":0.00072195},{"OBJECT_NAME":"STARLINK-36869","OBJECT_ID":"2026-037Y","EPOCH":"2026-03-05T04:00:01.999584","MEAN_MOTION":15.95989507,"ECCENTRICITY":0.0001774,"INCLINATION":43.0004,"RA_OF_ASC_NODE":226.3445,"ARG_OF_PERICENTER":275.2468,"MEAN_ANOMALY":104.9504,"EPHEMERIS_TYPE":0,"CLASSIFICATION_TYPE":"U","NORAD_CAT_ID":67954,"ELEMENT_SET_NO":999,"REV_AT_EPOCH":247,"BSTAR":-0.0036872,"MEAN_MOTION_DOT":-0.01562982,"MEAN_MOTION_DDOT":0.00071207},{"OBJECT_NAME":"STARLINK-36872","OBJECT_ID":"2026-037Z","EPOCH":"2026-03-05T04:00:01.999584","MEAN_MOTION":15.96241617,"ECCENTRICITY":0.0001639,"INCLINATION":43.0003,"RA_OF_ASC_NODE":226.3316,"ARG_OF_PERICENTER":274.4394,"MEAN_ANOMALY":110.749,"EPHEMERIS_TYPE":0,"CLASSIFICATION_TYPE":"U","NORAD_CAT_ID":67955,"ELEMENT_SET_NO":999,"REV_AT_EPOCH":247,"BSTAR":-0.0036581,"MEAN_MOTION_DOT":-0.01572022,"MEAN_MOTION_DDOT":0.00072154},{"OBJECT_NAME":"STARLINK-36918","OBJECT_ID":"2026-037AA","EPOCH":"2026-03-05T04:00:01.999584","MEAN_MOTION":15.96367387,"ECCENTRICITY":0.0001778,"INCLINATION":43.0005,"RA_OF_ASC_NODE":226.325,"ARG_OF_PERICENTER":274.1539,"MEAN_ANOMALY":113.6714,"EPHEMERIS_TYPE":0,"CLASSIFICATION_TYPE":"U","NORAD_CAT_ID":67956,"ELEMENT_SET_NO":999,"REV_AT_EPOCH":247,"BSTAR":-0.0036416,"MEAN_MOTION_DOT":-0.01575732,"MEAN_MOTION_DDOT":0.00072561},{"OBJECT_NAME":"STARLINK-36829","OBJECT_ID":"2026-037AB","EPOCH":"2026-03-05T04:00:01.999584","MEAN_MOTION":15.96121321,"ECCENTRICITY":0.0001835,"INCLINATION":43.0002,"RA_OF_ASC_NODE":226.3388,"ARG_OF_PERICENTER":276.8405,"MEAN_ANOMALY":105.6645,"EPHEMERIS_TYPE":0,"CLASSIFICATION_TYPE":"U","NORAD_CAT_ID":67957,"ELEMENT_SET_NO":999,"REV_AT_EPOCH":247,"BSTAR":-0.0037,"MEAN_MOTION_DOT":-0.0157954,"MEAN_MOTION_DDOT":0.00072701},{"OBJECT_NAME":"STARLINK-36799","OBJECT_ID":"2026-037AC","EPOCH":"2026-03-05T04:00:01.999584","MEAN_MOTION":15.96484626,"ECCENTRICITY":0.0001817,"INCLINATION":43.0001,"RA_OF_ASC_NODE":226.3197,"ARG_OF_PERICENTER":276.8277,"MEAN_ANOMALY":113.3044,"EPHEMERIS_TYPE":0,"CLASSIFICATION_TYPE":"U","NORAD_CAT_ID":67958,"ELEMENT_SET_NO":999,"REV_AT_EPOCH":247,"BSTAR":-0.0035962,"MEAN_MOTION_DOT":-0.01566243,"MEAN_MOTION_DDOT":0.00071845}]
